{
  "type": "FeatureCollection",
  "features": [
    {
      "type": "Feature",
      "properties": { "id": "CAISO", "name": "California ISO" },
      "geometry": {
        "type": "Polygon",
        "coordinates": [[
          [-124.41, 42.00], [-124.21, 41.00], [-123.80, 40.00], [-123.00, 39.00],
          [-122.40, 38.20], [-122.00, 37.50], [-121.50, 36.80], [-121.00, 36.20],
          [-120.50, 35.50], [-119.80, 34.80], [-119.20, 34.40], [-118.50, 34.00],
          [-117.80, 33.50], [-117.20, 33.00], [-116.80, 32.70], [-116.10, 32.55],
          [-115.50, 32.70], [-114.72, 32.72], [-114.50, 33.50], [-114.63, 34.87],
          [-114.63, 35.00], [-115.65, 35.80], [-117.16, 36.95], [-118.00, 37.58],
          [-119.00, 38.50], [-119.80, 39.30], [-120.50, 39.80], [-121.20, 40.50],
          [-122.00, 41.20], [-122.80, 41.80], [-124.41, 42.00]
        ]]
      }
    },
    {
      "type": "Feature",
      "properties": { "id": "PJM", "name": "PJM Interconnection" },
      "geometry": {
        "type": "Polygon",
        "coordinates": [[
          [-84.82, 41.76], [-84.00, 41.76], [-83.45, 41.73], [-82.69, 41.68],
          [-81.68, 41.50], [-80.52, 41.99], [-80.52, 42.33], [-79.76, 42.27],
          [-78.87, 42.27], [-77.72, 42.00], [-76.46, 42.09], [-75.36, 42.00],
          [-74.76, 41.43], [-74.18, 41.04], [-74.01, 40.70], [-74.24, 40.51],
          [-74.48, 39.50], [-75.05, 38.96], [-75.19, 38.78], [-75.56, 38.40],
          [-75.87, 38.00], [-76.24, 37.30], [-76.90, 36.60], [-77.72, 36.10],
          [-78.50, 35.80], [-79.50, 35.50], [-80.52, 35.47], [-81.34, 35.80],
          [-82.03, 36.37], [-82.70, 37.05], [-83.20, 37.80], [-83.68, 38.30],
          [-84.30, 38.90], [-84.82, 39.50], [-84.82, 40.30], [-84.82, 41.00],
          [-84.82, 41.76]
        ]]
      }
    },
    {
      "type": "Feature",
      "properties": { "id": "ERCOT", "name": "ERCOT (Texas)" },
      "geometry": {
        "type": "Polygon",
        "coordinates": [[
          [-100.00, 36.50], [-99.00, 36.00], [-97.50, 34.50], [-96.50, 33.80],
          [-96.00, 33.40], [-95.30, 32.70], [-94.60, 31.80], [-94.00, 30.50],
          [-93.80, 29.80], [-94.00, 29.50], [-94.50, 29.30], [-95.20, 28.40],
          [-96.50, 27.80], [-97.20, 26.50], [-97.50, 26.00], [-98.30, 26.20],
          [-99.00, 26.50], [-99.50, 27.30], [-100.00, 28.00], [-100.50, 28.80],
          [-101.20, 29.50], [-102.50, 29.80], [-103.00, 30.00], [-103.50, 30.50],
          [-104.00, 31.00], [-104.50, 31.50], [-103.50, 32.00], [-103.00, 33.00],
          [-102.50, 34.00], [-101.50, 35.00], [-100.80, 36.00], [-100.00, 36.50]
        ]]
      }
    },
    {
      "type": "Feature",
      "properties": { "id": "MISO", "name": "Midcontinent ISO" },
      "geometry": {
        "type": "MultiPolygon",
        "coordinates": [
          [
            [
              [-96.50, 49.00], [-95.00, 49.00], [-93.50, 48.50], [-92.00, 48.00],
              [-90.50, 47.50], [-89.00, 47.00], [-87.50, 46.50], [-86.50, 46.00],
              [-85.50, 45.00], [-84.82, 44.00], [-84.82, 43.00], [-84.82, 42.00],
              [-84.82, 41.00], [-85.50, 40.50], [-86.50, 40.00], [-87.50, 39.50],
              [-88.00, 39.00], [-88.50, 38.50], [-89.00, 38.00], [-89.50, 37.50],
              [-90.00, 37.00], [-90.50, 36.50], [-91.00, 35.00], [-91.50, 34.00],
              [-91.00, 33.00], [-91.00, 32.00], [-90.50, 31.00], [-90.00, 30.50],
              [-89.50, 30.00], [-90.50, 29.50], [-91.50, 29.50], [-92.50, 29.80],
              [-93.50, 30.20], [-94.50, 31.00], [-95.50, 32.00], [-96.50, 33.00],
              [-97.00, 34.00], [-97.50, 35.50], [-97.80, 37.00], [-98.50, 38.50],
              [-99.50, 40.00], [-100.50, 41.50], [-101.50, 43.00], [-103.00, 45.00],
              [-104.05, 46.50], [-104.05, 49.00], [-100.00, 49.00], [-96.50, 49.00]
            ]
          ]
        ]
      }
    },
    {
      "type": "Feature",
      "properties": { "id": "ISONE", "name": "ISO New England" },
      "geometry": {
        "type": "Polygon",
        "coordinates": [[
          [-73.73, 45.01], [-72.50, 45.01], [-71.50, 45.01], [-70.80, 44.50],
          [-69.50, 44.00], [-68.00, 44.40], [-67.00, 44.80], [-66.95, 44.40],
          [-67.50, 43.50], [-68.50, 43.00], [-69.50, 42.50], [-70.00, 42.00],
          [-70.50, 41.70], [-71.00, 41.30], [-71.40, 41.20], [-71.80, 41.25],
          [-72.30, 41.05], [-72.80, 41.00], [-73.73, 41.00], [-73.73, 42.05],
          [-73.50, 43.00], [-73.40, 44.00], [-73.73, 45.01]
        ]]
      }
    },
    {
      "type": "Feature",
      "properties": { "id": "NYISO", "name": "New York ISO" },
      "geometry": {
        "type": "Polygon",
        "coordinates": [[
          [-79.76, 43.26], [-79.00, 43.27], [-78.00, 43.50], [-76.80, 43.70],
          [-76.00, 44.00], [-75.30, 44.30], [-74.80, 44.80], [-73.90, 45.01],
          [-73.73, 45.01], [-73.40, 44.00], [-73.50, 43.00], [-73.73, 42.05],
          [-73.73, 41.00], [-74.18, 41.04], [-74.76, 41.43], [-75.00, 41.20],
          [-75.30, 41.00], [-76.00, 42.00], [-77.72, 42.00], [-78.87, 42.27],
          [-79.76, 42.27], [-79.76, 43.26]
        ]]
      }
    },
    {
      "type": "Feature",
      "properties": { "id": "SPP", "name": "Southwest Power Pool" },
      "geometry": {
        "type": "Polygon",
        "coordinates": [[
          [-104.05, 49.00], [-103.00, 45.00], [-101.50, 43.00], [-100.50, 41.50],
          [-99.50, 40.00], [-98.50, 38.50], [-97.80, 37.00], [-97.50, 35.50],
          [-97.00, 34.00], [-96.50, 33.00], [-95.50, 33.20], [-95.00, 33.50],
          [-94.50, 34.00], [-94.00, 34.50], [-94.00, 35.50], [-94.50, 36.50],
          [-95.00, 37.50], [-95.50, 38.00], [-96.00, 38.50], [-96.50, 39.50],
          [-97.50, 40.50], [-99.00, 41.50], [-100.50, 43.00], [-102.00, 44.50],
          [-103.50, 46.00], [-104.50, 48.00], [-104.50, 49.00], [-104.05, 49.00]
        ]]
      }
    }
  ]
}
